#dP2023 11 21  0  0  0.00000000      96 __u+U IGS20 FIT  IAC
## 2289 172800.00000000   900.00000000 60269 0.0000000000000
+  118   C06C07C08C09C10C11C12C13C14C16C19C20C21C22C23C24C25
+        C26C27C28C29C30C32C33C34C35C36C37C38C39C40C41C42C43
+        C44C45C46E02E03E04E05E07E08E09E10E11E12E13E15E19E21
+        E24E25E26E27E30E31E33E34E36G01G02G03G04G05G06G07G08
+        G09G10G11G12G13G14G15G16G17G18G19G20G21G22G23G24G25
+        G26G27G28G29G30G31G32J02J03J04R01R02R03R04R05R07R08
+        R09R11R12R13R14R15R16R17R18R19R20R21R22R24R25R26  0
++         8  9 10  9  9  7  8 10  7  8  6  7  7  7  8  7  7
++         6  8  8  9  8  8  7  7  7  7  7  9  7 10  7  8  7
++         8  7  7  6  7  7  7  7  7  7  7  7  8  7  7  7  6
++         7  7  7  7  6  6  7  6  6  0  6  7  7  7  6  7  7
++         7  7  6  7  6  8  7  6  7  7  7  6  6  7  7  7  7
++         7  6  7  8  7  6  7  6  8  8  7  7  8  7  7  7  7
++         8  7  8  7  7  6  7  8  7  7  8  7  6  7  7  7  0
%c M  cc GPS ccc cccc cccc cccc cccc ccccc ccccc ccccc ccccc
%c cc cc ccc ccc cccc cccc cccc cccc ccccc ccccc ccccc ccccc
%f  0.0000000  0.000000000  0.00000000000  0.000000000000000
%f  0.0000000  0.000000000  0.00000000000  0.000000000000000
%i    0    0    0    0      0      0      0      0         0
%i    0    0    0    0      0      0      0      0         0
/* INFORMATION & ANALYSIS CENTER (IAC)      ULTRA-RAPID DATA
/* S/V CLOCKS ARE ALIGNED TO GNSS TIME                      
/* G:C1WC2W R:C1PC2P E:C1XC5X C:C2IC6I J:C1CC2S             
/* PCV:IGS20_2287 OL/AL:FES2004  NONE     YN ORB:CoN CLK:CoN
*  2023 11 21 17 45  0.00000000
PC06  -5608.495028  24342.460216 -33908.834785     33.939475
PC07 -17119.981748  35014.377603  15942.641152   -354.424424
PC08  -3241.488619  39344.557131  15117.811924    227.063463
PC09   4636.572300  27410.138516 -31115.994025   -118.563745
PC10  -8490.439221  34651.540302  22413.976605    -25.372978
PC11  -6005.749596  14535.801986  23127.587679    267.705590
PC12 -23575.799289   5638.122388  13865.005925    851.184794
PC13    720.555169  41219.095640   9707.835945    385.739672
PC14 -11164.762772  24086.282699  -8511.854566    829.119206
PC16  -8998.798725  22282.718534 -34404.126420   -187.004982
PC19   3257.899823 -22399.887307  16347.821907   -965.306633
PC20  16443.351056 -22537.233254   1056.741017     96.761383
PC21 -20831.856473   8935.490135  16274.622245   -969.845966
PC22 -12534.300904  -9385.064144  23089.499218   -216.293405
PC23  16036.118178  20731.763790   9593.238061   -817.183465
PC24  -8978.570936  16836.072139 -20391.378987    618.659870
PC25   6182.342660  26339.375552  -6900.060943    260.801865
PC26 -17596.989249  -1353.800036 -21627.326033   -209.434175
PC27  27240.415753   -364.795666  -6044.964320    231.359335
PC28  23905.918348  10433.795234   9935.916097    174.685140
PC29  -5319.660462 -16152.262754 -22125.452794    204.397846
PC30  16319.292706 -11893.962886 -19254.961155     -8.803963
PC32  20751.316401  -9009.151839 -16333.780138   -536.441980
PC33  -3195.911125  22462.799776 -16244.280558   -943.952229
PC34 -14928.100475  12562.918225  19951.914097    308.350272
PC35 -24345.999495  -9514.759098  -9826.386993    497.799823
PC36  -4909.064845 -26365.717178   7705.020855   -124.731401
PC37  17737.005959   2580.198083  21401.849147   -894.975677
PC38  -8258.686174  35384.967983  21584.366626    119.171144
PC39 -12759.879521  20809.361289 -34372.020404     -5.762922
PC40 -24677.692486  30368.291223  15396.996067    -44.874706
PC41  12043.536225  10053.695502 -23031.217063   -871.539485
PC42 -17222.231978  21939.709381    524.712662   -494.845024
PC43   4225.648425  16296.506718  22248.264698     49.190772
PC44 -27279.002236   1288.965242   5803.618589    299.720899
PC45 -16157.234361 -20348.438020 -10148.262325    -48.203158
PC46   8168.693496 -17673.858073  19966.640418   -101.542989
PE02 -12778.722108 -14704.070947 -22283.290912     80.331152
PE03 -21507.934271  -6644.791330  19206.774840    -74.989652
PE04  28389.693866  -7771.750397  -3111.529444   -262.693640
PE05  -2220.803784 -17103.263030  24051.721362   4693.104015
PE07 -18907.126677  17531.961519 -14537.031952    -89.009216
PE08 -28412.501586   7435.785241   3661.349046   -180.499225
PE09  19050.390238 -17427.410154  14477.244702   -235.824301
PE10  16336.431465  -6249.184222 -23881.985787   -580.590299
PE11   7202.152583 -14783.417801 -24616.089004   3222.040845
PE12  22090.278538   2251.480050 -19565.528743   -786.616694
PE13  -7827.708964  14221.464218  24760.761618    -19.609958
PE15 -22286.753507  -2716.400105  19300.277135    -70.628789
PE19  19529.118800   8298.921715 -20635.115268  -1168.894737
PE21   1347.070488  28015.392916   9470.823575   -565.235769
PE24  11789.186065 -25281.308454   9849.097722   -444.149401
PE25  -1086.437032 -28129.594548  -9129.358621     -3.092580
PE26  11500.431231  22743.540087  15072.179829    287.570995
PE27 -11436.429416  25630.219159  -9427.864629   -205.521536
PE30 -17431.071394   7737.194075 -22652.068403   -680.532305
PE31  17339.607126  -8150.695980  22566.578058    -10.396807
PE33  23290.714809  18167.320964  -2009.743349      2.789870
PE34 -23513.331727 -17776.348683   2615.309664    -79.195477
PE36 -10991.796211 -22585.714663 -15652.868465   -147.182415
PG01      0.000000      0.000000      0.000000 999999.999999
PG02 -21500.860241 -15764.218035   -220.165981   -525.933039
PG03 -12679.891023  -9346.956715  21256.321090      1.199428
PG04 -22596.672574  -2944.646406  13759.039502    219.098637
PG05   7079.834877  21193.409755 -14468.139696   -151.244847
PG06  -2659.009065  16059.446387  21036.853567    499.832043
PG07 -19458.573692     45.297371 -17809.040076      7.545364
PG08 -16286.695853  -8426.826626 -19437.060376   -153.195988
PG09 -25437.136279   6495.067160   4148.504451      3.808697
PG10  10798.820694 -21890.287054  -9861.785494    -62.282844
PG11   8116.135166  21068.460094  14052.448956   -469.690532
PG12  11734.025902  11569.651785  20569.174966   -449.427723
PG13   5855.437186  14142.833488 -21923.715862    597.709937
PG14 -13404.647527  19018.074162 -12624.278914    249.666699
PG15  17391.350940   7044.785188 -19363.437322     99.380849
PG16   -752.810012 -24289.468162 -10470.297211   -418.060237
PG17 -20736.007969  13333.613462  10488.707882    722.997966
PG18  18023.627158  -1659.424579 -19489.154339   -485.537526
PG19 -13572.140229  15027.993035  16808.227637    402.036162
PG20   1158.544554  26548.044857  -2110.486277    400.482566
PG21 -20313.570289 -17451.332157  -3408.122477    143.665596
PG22 -10655.633125  23782.630121  -5416.114315     79.753318
PG23  14763.155566 -11041.546312 -19035.903210    102.768753
PG24  21651.311465  15778.410599   -462.763515   -376.514831
PG25  15592.690556  -2441.382702  21000.839513    478.367831
PG26   3007.548146 -26188.630336    101.784517    215.043591
PG27  -2308.969182 -15251.060006 -21846.280622    -73.047345
PG28   4412.696546 -15396.504758  21163.944337    -51.387203
PG29  25944.582912  -3749.235195   4561.687818   -610.165183
PG30 -12120.475005  10198.984972 -21215.492518   -465.822413
PG31  -3336.577609 -19492.566592  17325.230915   -225.946133
PG32  16972.517452 -15790.235900  12953.903328   -588.322327
PJ02 -23655.055779  31671.855653  -9848.430469     -0.244390
PJ03 -27182.620389  22574.473938  28179.036138     -9.045803
PJ04 -32539.764873  26887.415469   6986.380977     72.750731
PR01  -6368.519798  17509.405570 -17424.307400     70.354036
PR02   8646.305204   6703.640218 -22999.854092    -22.333557
PR03  19060.944238  -7619.906578 -15055.563292     89.454900
PR04  18790.900687 -17208.631429    947.070505    212.032539
PR05   8412.412152 -17567.742422  16457.736576    122.585863
PR07 -19382.962696   8258.840995  14457.028384     69.638252
PR08 -18660.031531  17390.684185  -1023.346908    -73.376909
PR09 -11047.174670 -19417.213669 -12370.046638    154.471424
PR11  -6761.610144  13805.485649 -20342.629194   -214.874364
PR12   2990.272072  24839.278646  -4998.707837     33.662966
PR13  10016.970076  20975.617154  10494.751488    -41.552211
PR14  11849.051530   3166.661729  22372.457624     25.573570
PR15   6362.391271 -15056.213908  19600.351898     84.593034
PR16  -2999.053060 -24776.232697   5360.640629     20.834984
PR17  24026.130714   4425.940794  -7399.089803     36.912973
PR18  14778.321970  -4565.310174 -20246.209215    113.089807
PR19     36.285229 -10952.411470 -23028.739476   -255.475287
PR20 -19317.531052 -12560.813082 -10965.522768   -103.921512
PR21 -23798.535307  -4241.741413   8101.701336    -55.148730
PR22 -14217.857158   5024.975464  20607.719526     94.619229
PR24  20054.522820  11893.384997  10393.912857    -33.019798
PR25 -23808.847027  -5304.434015   7431.980409     -4.574928
PR26 -18726.240227  17301.645428   -441.087461    -15.733308
EOF
